NORAD_CAT_ID,OBJECT_NAME,OBJECT_TYPE,EPOCH,MEAN_MOTION,ECCENTRICITY,INCLINATION,RA_OF_ASC_NODE,ARG_OF_PERICENTER,MEAN_ANOMALY,BSTAR,MEAN_MOTION_DOT,MEAN_MOTION_DDOT,TLE_LINE0,TLE_LINE1,TLE_LINE2,SEMIMAJOR_AXIS,PERIOD,APOGEE,PERIGEE,DECAYED
49417.0,STARLINK-3154,PAYLOAD,2022-03-01 03:58:44,15.08841063,0.0001925,53.2186,336.0734,46.4447,313.6704,0.00017266,2.461e-05,0.0,0 STARLINK-3154,1 49417U 21104K   22060.16579620  .00002461  00000-0  17266-3 0  9997,2 49417  53.2186 336.0734 0001925  46.4447 313.6704 15.08841063 18025,6917.877,95.437,541.0740000000002,538.41,0.0
49417.0,STARLINK-3154,PAYLOAD,2022-03-01 21:27:59,15.08848263,0.0001885,53.2184,332.8022,47.51600000000001,312.5991,-3.5469e-05,-8.53e-06,0.0,0 STARLINK-3154,1 49417U 21104K   22060.89443632 -.00000853  00000-0 -35469-4 0  9991,2 49417  53.2184 332.8022 0001885  47.5160 312.5991 15.08848263 17020,6917.855,95.437,541.024,538.4159999999998,0.0
49417.0,STARLINK-3154,PAYLOAD,2022-03-02 03:49:32,15.08838613,0.0001665999999999,53.2178,331.6123,44.4229,315.6896,-0.00015308,-2.723e-05,0.0,0 STARLINK-3154,1 49417U 21104K   22061.15940544 -.00002723  00000-0 -15308-3 0  9992,2 49417  53.2178 331.6123 0001666  44.4229 315.6896 15.08838613 18174,6917.885,95.438,540.9019999999998,538.597,0.0
49417.0,STARLINK-3154,PAYLOAD,2022-03-02 21:18:46,15.08836073,0.0001706999999999,53.2177,328.3428,40.793,319.3189,-7.213e-05,-1.436e-05,0.0,0 STARLINK-3154,1 49417U 21104K   22061.88804309 -.00001436  00000-0 -72130-4 0  9997,2 49417  53.2177 328.3428 0001707  40.7930 319.3189 15.08836073 17171,6917.892,95.438,540.938,538.577,0.0
49417.0,STARLINK-3154,PAYLOAD,2022-03-03 02:04:56,15.08839706,0.0001867,53.2188,327.4509,43.8441,316.2699,-4.556e-05,-1.013e-05,0.0,0 STARLINK-3154,1 49417U 21104K   22062.08676048 -.00001013  00000-0 -45560-4 0  9995,2 49417  53.2188 327.4509 0001867  43.8441 316.2699 15.08839706 18316,6917.880999999999,95.438,541.038,538.455,0.0
49417.0,STARLINK-3154,PAYLOAD,2022-03-03 10:01:51,15.08843685,0.0001814,53.2178,325.9639,40.9237,319.1891,-1.3872e-06,-3.1e-06,0.0,0 STARLINK-3154,1 49417U 21104K   22062.41795586 -.00000310  00000-0 -13872-5 0  9992,2 49417  53.2178 325.9639 0001814  40.9237 319.1891 15.08843685 17254,6917.869000000002,95.437,540.989,538.479,0.0
49417.0,STARLINK-3154,PAYLOAD,2022-03-03 21:09:34,15.08753316,0.0001042,53.2179,323.8824,32.5027,327.6029,0.0012627,0.00019817,0.0,0 STARLINK-3154,1 49417U 21104K   22062.88165044  .00019817  00000-0  12627-2 0  9997,2 49417  53.2179 323.8824 0001042  32.5027 327.6029 15.08753316 17321,6918.145,95.443,540.731,539.289,0.0
49417.0,STARLINK-3154,PAYLOAD,2022-03-04 01:55:42,15.08840332,0.0001836,53.2178,322.9903,41.2166,318.8964,0.00013286,1.827e-05,0.0,0 STARLINK-3154,1 49417U 21104K   22063.08035169  .00001827  00000-0  13286-3 0  9999,2 49417  53.2178 322.9903 0001836  41.2166 318.8964 15.08840332 18461,6917.879,95.438,541.014,538.474,0.0
49417.0,STARLINK-3154,PAYLOAD,2022-03-04 09:52:39,15.08829543,0.0002102,53.2184,321.5027,40.3795,319.7353,7.2723e-05,8.69e-06,0.0,0 STARLINK-3154,1 49417U 21104K   22063.41156263  .00000869  00000-0  72723-4 0  9992,2 49417  53.2184 321.5027 0002102  40.3795 319.7353 15.08829543 18514,6917.9119999999975,95.438,541.231,538.323,0.0
49417.0,STARLINK-3154,PAYLOAD,2022-03-04 17:49:34,15.08838368,0.0001871,53.218,320.0161,41.6,318.5134,8.4288e-06,-1.54e-06,0.0,0 STARLINK-3154,1 49417U 21104K   22063.74275976 -.00000154  00000-0  84288-5 0  9999,2 49417  53.2180 320.0161 0001871  41.6000 318.5134 15.08838368 17459,6917.885,95.438,541.045,538.456,0.0
49417.0,STARLINK-3154,PAYLOAD,2022-03-05 01:46:30,15.08837647,0.0001872,53.218,318.5296,42.2527,317.8609,1.3933e-06,-2.66e-06,0.0,0 STARLINK-3154,1 49417U 21104K   22064.07396069 -.00000266  00000-0  13933-5 0  9996,2 49417  53.2180 318.5296 0001872  42.2527 317.8609 15.08837647 18619,6917.888000000001,95.438,541.048,538.4580000000002,0.0
49417.0,STARLINK-3154,PAYLOAD,2022-03-05 09:43:26,15.08833488,0.0001865,53.2176,317.0429,42.3993,317.7143,-4.3446e-05,-9.79e-06,0.0,0 STARLINK-3154,1 49417U 21104K   22064.40516576 -.00000979  00000-0 -43446-4 0  9993,2 49417  53.2176 317.0429 0001865  42.3993 317.7143 15.08833488 17559,6917.9,95.438,541.055,538.475,0.0
49417.0,STARLINK-3154,PAYLOAD,2022-03-05 22:26:30,15.0884619,0.0001896,53.2168,314.6638,41.715,318.3986,-4.5486e-06,-3.61e-06,0.0,0 STARLINK-3154,1 49417U 21104K   22064.93507729 -.00000361  00000-0 -45486-5 0  9993,2 49417  53.2168 314.6638 0001896  41.7150 318.3986 15.08846190 17632,6917.861,95.437,541.038,538.415,0.0
49417.0,STARLINK-3154,PAYLOAD,2022-03-06 01:37:16,15.08847767,0.0001903,53.2171,314.0691,45.419,314.6957,1.0696e-05,-1.18e-06,0.0,0 STARLINK-3154,1 49417U 21104K   22065.06755547 -.00000118  00000-0  10696-4 0  9994,2 49417  53.2171 314.0691 0001903  45.4190 314.6957 15.08847767 18766,6917.857,95.437,541.038,538.405,0.0
49417.0,STARLINK-3154,PAYLOAD,2022-03-06 09:34:11,15.08856747,0.0001875,53.2172,312.5823,44.4979,315.6163,-3.7626e-07,-2.94e-06,0.0,0 STARLINK-3154,1 49417U 21104K   22065.39874782 -.00000294  00000-0 -37626-6 0  9993,2 49417  53.2172 312.5823 0001875  44.4979 315.6163 15.08856747 18813,6917.829000000002,95.436,540.991,538.3969999999998,0.0
49417.0,STARLINK-3154,PAYLOAD,2022-03-06 22:17:17,15.08851628,0.0002097,53.2193,310.2043,55.2239,304.895,-6.9497e-05,-1.395e-05,0.0,0 STARLINK-3154,1 49417U 21104K   22065.92867443 -.00001395  00000-0 -69497-4 0  9990,2 49417  53.2193 310.2043 0002097  55.2239 304.8950 15.08851628 18896,6917.845,95.437,541.161,538.259,0.0
49417.0,STARLINK-3154,PAYLOAD,2022-03-07 09:24:58,15.08847124,0.0002072,53.2183,308.1223,47.7353,312.3814,0.00015281,2.145e-05,0.0,0 STARLINK-3154,1 49417U 21104K   22066.39234748  .00002145  00000-0  15281-3 0  9991,2 49417  53.2183 308.1223 0002072  47.7353 312.3814 15.08847124 17851,6917.859,95.437,541.1569999999998,538.29,0.0
49417.0,STARLINK-3154,PAYLOAD,2022-03-07 22:08:04,15.08844544,0.0002049,53.2182,305.7437,48.9903,311.1266,5.4262e-05,5.76e-06,0.0,0 STARLINK-3154,1 49417U 21104K   22066.92227031  .00000576  00000-0  54262-4 0  9996,2 49417  53.2182 305.7437 0002049  48.9903 311.1266 15.08844544 17938,6917.866,95.437,541.149,538.314,0.0
49417.0,STARLINK-3154,PAYLOAD,2022-03-08 01:18:50,15.0884608,0.0002,53.2179,305.1483,47.8803,312.2359,1.6762e-05,-2.1e-07,0.0,0 STARLINK-3154,1 49417U 21104K   22067.05474988 -.00000021  00000-0  16762-4 0  9995,2 49417  53.2179 305.1483 0002000  47.8803 312.2359 15.08846080 19061,6917.861999999999,95.437,541.11,538.3430000000002,0.0
49417.0,STARLINK-3154,PAYLOAD,2022-03-08 09:15:45,15.08850872,0.0002077,53.218,303.6622,48.1901,311.9268,3.1217e-05,2.09e-06,0.0,0 STARLINK-3154,1 49417U 21104K   22067.38594425  .00000209  00000-0  31217-4 0  9999,2 49417  53.2180 303.6622 0002077  48.1901 311.9268 15.08850872 18000,6917.847,95.437,541.149,538.275,0.0
49417.0,STARLINK-3154,PAYLOAD,2022-03-08 21:58:51,15.08837985,0.0001922,53.2179,301.2833,44.0666,316.0479,-1.0361e-05,-4.53e-06,0.0,0 STARLINK-3154,1 49417U 21104K   22067.91587076 -.00000453  00000-0 -10361-4 0  9992,2 49417  53.2179 301.2833 0001922  44.0666 316.0479 15.08837985 18085,6917.887,95.438,541.081,538.422,0.0
49417.0,STARLINK-3154,PAYLOAD,2022-03-09 01:09:38,15.08822279,0.0001864,53.2179,300.6884,42.2787,317.8348,-0.0001921,-3.343e-05,0.0,0 STARLINK-3154,1 49417U 21104K   22068.04836663 -.00003343  00000-0 -19210-3 0  9998,2 49417  53.2179 300.6884 0001864  42.2787 317.8348 15.08822279 19213,6917.935,95.439,541.089,538.51,0.0
49417.0,STARLINK-3154,PAYLOAD,2022-03-09 21:49:40,15.08823226,0.0001879,53.218,296.8224,44.4012,315.713,-0.00012702,-2.308e-05,0.0,0 STARLINK-3154,1 49417U 21104K   22068.90949149 -.00002308  00000-0 -12702-3 0  9996,2 49417  53.2180 296.8224 0001879  44.4012 315.7130 15.08823226 18230,6917.932,95.439,541.097,538.497,0.0
49417.0,STARLINK-3154,PAYLOAD,2022-03-10 01:00:26,15.08823771,0.0001872,53.2176,296.2273,42.6007,317.513,-0.00012262,-2.238e-05,0.0,0 STARLINK-3154,1 49417U 21104K   22069.04197229 -.00002238  00000-0 -12262-3 0  9999,2 49417  53.2176 296.2273 0001872  42.6007 317.5130 15.08823771 19360,6917.93,95.439,541.09,538.5,0.0
49417.0,STARLINK-3154,PAYLOAD,2022-03-10 20:05:09,15.08599821,1.4e-05,53.2172,292.66,354.327,5.7721,0.0030006,0.00047475,0.0,0 STARLINK-3154,1 49417U 21104K   22069.83691356  .00047475  00000-0  30006-2 0  9991,2 49417  53.2172 292.6600 0000140 354.3270   5.7721 15.08599821 19483,6918.615,95.453,540.576,540.383,0.0
49417.0,STARLINK-3154,PAYLOAD,2022-03-10 21:40:25,15.08876664,0.0001954,53.2176,292.3617,32.4745,327.6368,-0.0006772,-0.00011061,0.0,0 STARLINK-3154,1 49417U 21104K   22069.90307817 -.00011061  00000-0 -67720-3 0  9993,2 49417  53.2176 292.3617 0001954  32.4745 327.6368 15.08876664 18381,6917.768,95.435,540.985,538.2819999999998,0.0
49417.0,STARLINK-3154,PAYLOAD,2022-03-11 02:26:36,15.08819368,0.0001875,53.2174,291.4694,42.3148,317.7988,0.00017007,2.418e-05,0.0,0 STARLINK-3154,1 49417U 21104K   22070.10181627  .00002418  00000-0  17007-3 0  9993,2 49417  53.2174 291.4694 0001875  42.3148 317.7988 15.08819368 19526,6917.943,95.439,541.106,538.511,0.0
49417.0,STARLINK-3154,PAYLOAD,2022-03-11 07:12:46,15.08823629,0.0001888,53.2172,290.5777,43.3537,316.7603,0.0001931,2.785e-05,0.0,0 STARLINK-3154,1 49417U 21104K   22070.30053576  .00002785  00000-0  19310-3 0  9992,2 49417  53.2172 290.5777 0001888  43.3537 316.7603 15.08823629 18441,6917.93,95.439,541.102,538.489,0.0
49417.0,STARLINK-3154,PAYLOAD,2022-03-11 18:20:28,15.08831499,0.00019,53.2171,288.4959,43.2866,316.8275,0.00016745,2.377e-05,0.0,0 STARLINK-3154,1 49417U 21104K   22070.76421632  .00002377  00000-0  16745-3 0  9990,2 49417  53.2171 288.4959 0001900  43.2866 316.8275 15.08831499 19628,6917.906,95.438,541.086,538.457,0.0
